<?xml version="1.0" encoding="UTF-8"?>
<srvMgtUtilReq xmlns="urn:ccsds:schema:cssm:1.0.0"
					 xmlns:xsi="http://www.w3.org/2001/XMLSchema-instance"
					 xmlns:xmi="http://www.omg.org/XMI"
   					 xsi:schemaLocation="urn:ccsds:schema:cssm:1.0.0 902x09w0_19-Smurf.xsd">
 			 
	<srvMgtUtilReqHeader originatingOrganization="ESOC"
						 generationTime="2020-165T10:05:00.000Z"
						 version="1"
						 startTime="2020-166T00:00:00.000Z"
						 endTime="2020-167T00:00:00.000Z"
						 purpose="Example of submiision of OEM v2 trajectory data..."
						 description="Request description..."
						 utilizationReqStatus="TEST">
	</srvMgtUtilReqHeader>

	<submissionReq requestID="Request-123456">
                              <spaceUserNode>Test</spaceUserNode>
							  <oemWrapper trajectoryID="TestTrajectoryIdforOEMV2-1234">


<!--********************************************************************************************************************** -->
<!-- OEM defined in CCSDS 502.0-B-2 and CCSDS 505.0-B-1 starts below                                                       -->
<!--********************************************************************************************************************** -->

                                 <oem xmlns:xsi="http://www.w3.org/2001/XMLSchema-instance"
                                      xmlns:ndm="urn:ccsds:schema:ndmxml"
                                      xsi:noNamespaceSchemaLocation="https://sanaregistry.org/r/ndmxml_qualified/ndmxml-2.0.0-master-2.0.xsd"
                                      id="CCSDS_OEM_VERS" version="2.0">
                                    <ndm:header>                  
                                       <ndm:COMMENT>THIS OEM PRODUCED BY JPL OEM VERSION 2 PROTOTYPE</ndm:COMMENT>
                                       <ndm:CREATION_DATE>2009-06-23T23:47:17.026</ndm:CREATION_DATE>
                                       <ndm:ORIGINATOR>NASA/JPL</ndm:ORIGINATOR>
                                    </ndm:header>
                                    <ndm:body>
                                       <ndm:segment>
                                          <ndm:metadata>
                                             <ndm:OBJECT_NAME>ODYSSEY</ndm:OBJECT_NAME>
                                             <ndm:OBJECT_ID>053</ndm:OBJECT_ID>
                                             <ndm:CENTER_NAME>MARS BARYCENTER</ndm:CENTER_NAME>
                                             <ndm:REF_FRAME>EME2000</ndm:REF_FRAME>
                                             <ndm:TIME_SYSTEM>TDB</ndm:TIME_SYSTEM>
                                             <ndm:START_TIME>2009-05-31T23:32:30.000</ndm:START_TIME>
                                             <ndm:STOP_TIME>2009-06-07T21:56:30.000</ndm:STOP_TIME> 
                                          </ndm:metadata>
                                          <ndm:data> 
                                            <ndm:stateVector>
                                               <ndm:EPOCH>2009-05-31T23:56:30.000</ndm:EPOCH>
                                               <ndm:X>-2.613720457453217e+03</ndm:X>
                                               <ndm:Y>-5.730767984110473e+02</ndm:Y>
                                               <ndm:Z>-2.658350365826668e+03</ndm:Z>
                                               <ndm:X_DOT>5.016464057177827e-01</ndm:X_DOT>
                                               <ndm:Y_DOT>3.139899780125071e+00</ndm:Y_DOT>
                                               <ndm:Z_DOT>-1.142282940561206e+00</ndm:Z_DOT>
                                               <ndm:X_DDOT>2.079806909177527e-03</ndm:X_DDOT>
                                               <ndm:Y_DDOT>4.506587398382413e-04</ndm:Y_DDOT>
                                               <ndm:Z_DDOT>2.118997396486061e-03</ndm:Z_DDOT>
                                            </ndm:stateVector>
                                            <ndm:stateVector>
                                               <ndm:EPOCH>2009-05-31T23:57:30.000</ndm:EPOCH>
                                               <ndm:X>-2.579892694781109e+03</ndm:X>
                                               <ndm:Y>-3.839615471801778e+02</ndm:Y>
                                               <ndm:Z>-2.723040720962232e+03</ndm:Z>
                                               <ndm:X_DOT>6.256859787327620e-01</ndm:X_DOT>
                                               <ndm:Y_DOT>3.162440131511653e+00</ndm:Y_DOT>
                                               <ndm:Z_DOT>-1.013537282520112e+00</ndm:Z_DOT>
                                               <ndm:X_DDOT>2.053837610477641e-03</ndm:X_DDOT>
                                               <ndm:Y_DDOT>3.004869599132996e-04</ndm:Y_DDOT>
                                               <ndm:Z_DDOT>2.171489218662653e-03</ndm:Z_DDOT>
                                            </ndm:stateVector>
                                            <ndm:stateVector>
                                               <ndm:EPOCH>2009-05-31T23:58:30.000</ndm:EPOCH>
                                               <ndm:X>-2.538672919557932e+03</ndm:X>
                                               <ndm:Y>-1.937648333506952e+02</ndm:Y>
                                               <ndm:Z>-2.779915603866621e+03</ndm:Z>
                                               <ndm:X_DOT>7.479867424205120e-01</ndm:X_DOT>
                                               <ndm:Y_DOT>3.175938862636365e+00</ndm:Y_DOT>
                                               <ndm:Z_DOT>-8.818301602710019e-01</ndm:Z_DOT>
                                               <ndm:X_DDOT>2.021860702823776e-03</ndm:X_DDOT>
                                               <ndm:Y_DDOT>1.493480562940064e-04</ndm:Y_DDOT>
                                               <ndm:Z_DDOT>2.217685401859734e-03</ndm:Z_DDOT>
                                            </ndm:stateVector>
                                            <ndm:stateVector>
                                               <ndm:EPOCH>2009-05-31T23:59:30.000</ndm:EPOCH>
                                               <ndm:X>-2.490176217689170e+03</ndm:X>
                                               <ndm:Y>-3.030617328622384e+00</ndm:Y>
                                               <ndm:Z>-2.828808753884121e+03</ndm:Z>
                                               <ndm:X_DOT>8.681911479995521e-01</ndm:X_DOT>
                                               <ndm:Y_DOT>3.180351840935284e+00</ndm:Y_DOT>
                                               <ndm:Z_DOT>-7.475439925770020e-01</ndm:Z_DOT>
                                               <ndm:X_DDOT>1.983979077300988e-03</ndm:X_DDOT>
                                               <ndm:Y_DDOT>-2.294026610354740e-06</ndm:Y_DDOT>
                                               <ndm:Z_DDOT>2.257434883167889e-03</ndm:Z_DDOT>
                                            </ndm:stateVector>
                                            <ndm:stateVector>
                                               <ndm:EPOCH>2009-06-01T00:00:30.000</ndm:EPOCH>
                                               <ndm:X>-2.434538923459933e+03</ndm:X>
                                               <ndm:Y>1.876953269409864e+02</ndm:Y>
                                               <ndm:Z>-2.869577108406554e+03</ndm:Z>
                                               <ndm:X_DOT>9.859487488352459e-01</ndm:X_DOT>
                                               <ndm:Y_DOT>3.175662702424453e+00</ndm:Y_DOT>
                                               <ndm:Z_DOT>-6.110693051552007e-01</ndm:Z_DOT>
                                               <ndm:X_DDOT>1.940323645644173e-03</ndm:X_DDOT>
                                               <ndm:Y_DDOT>-1.539799725769535e-04</ndm:Y_DDOT>
                                               <ndm:Z_DDOT>2.290618805418301e-03</ndm:Z_DDOT>
                                            </ndm:stateVector>
                                            <ndm:stateVector>
                                               <ndm:EPOCH>2009-06-01T00:01:30.000</ndm:EPOCH>
                                               <ndm:X>-2.371918152634936e+03</ndm:X>
                                               <ndm:Y>3.778670667412048e+02</ndm:Y>
                                               <ndm:Z>-2.902101230886221e+03</ndm:Z>
                                               <ndm:X_DOT>1.100917420422844e+00</ndm:X_DOT>
                                               <ndm:Y_DOT>3.161882456573382e+00</ndm:Y_DOT>
                                               <ndm:Z_DOT>-4.728027618649646e-01</ndm:Z_DOT>
                                               <ndm:X_DDOT>1.891040452950388e-03</ndm:X_DDOT>
                                               <ndm:Y_DDOT>-3.052562603375704e-04</ndm:Y_DDOT>
                                               <ndm:Z_DDOT>2.317152999149905e-03</ndm:Z_DDOT>
                                            </ndm:stateVector>
                                            